ONEWEB-0029             
1 45445U 20020X   25327.77866932  .00000177  00000+0  46371-3 0  9991
2 45445  87.8871  61.9649 0001867 109.1577 250.9753 13.11420195275732
ONEWEB-0068             
1 45446U 20020Y   25327.76243192 -.00000467  00000+0 -13531-2 0  9993
2 45446  87.8873  61.9576 0001866 109.4447 250.6882 13.11416314275673
ONEWEB-0046             
1 45447U 20020Z   25327.83038243 -.00000487  00000+0 -14091-2 0  9995
2 45447  87.8876  61.9522 0001690 116.2922 243.8380 13.11415564275692
ONEWEB-0063             
1 45448U 20020AA  25327.78292041  .00000258  00000+0  69164-3 0  9994
2 45448  87.8870  61.9588 0001557 107.3697 252.7601 13.11418648275771
ONEWEB-0019             
1 45449U 20020AB  25327.83291582 -.00000494  00000+0 -14285-2 0  9997
2 45449  87.8862  61.9611 0001951 112.1696 247.9639 13.11414694275629
ONEWEB-0094             
1 45450U 20020AC  25327.71964889 -.00000355  00000+0 -94852-3 0  9998
2 45450  87.9135  46.6909 0001852 104.2216 255.9121 13.17648406279259
ONEWEB-0087             
1 45451U 20020AD  25327.79295656  .00000464  00000+0  12721-2 0  9999
2 45451  87.8881  61.9131 0002100 113.8124 246.3224 13.11416189275669
ONEWEB-0082             
1 45452U 20020AE  25327.78970160  .00000590  00000+0  16298-2 0  9992
2 45452  87.8878  61.9396 0001984 110.6591 249.4749 13.11417135275759
ONEWEB-0050             
1 45453U 20020AF  25327.82844068  .00004123  00000+0  43259-3 0  9999
2 45453  88.9230 261.2231 0004280  36.4645 323.6874 14.89348219309804
ONEWEB-0034             
1 45454U 20020AG  25327.81088874  .00000022  00000+0  25294-4 0  9998
2 45454  87.8871  61.9515 0001820 106.4407 253.6921 13.11416235275675
ONEWEB-0060             
1 45455U 20020AH  25327.78206808  .00000285  00000+0  76910-3 0  9995
2 45455  87.8859  61.9764 0002790 118.9315 241.2093 13.11419986275625
ONEWEB-0086             
1 45456U 20020AJ  25327.76087411 -.00000510  00000+0 -14758-2 0  9995
2 45456  87.8870  61.9583 0002511 102.4668 257.6741 13.11417042275686
ONEWEB-0088             
1 45457U 20020AK  25327.81512684 -.00000099  00000+0 -31597-3 0  9990
2 45457  87.8884  61.9010 0001744 111.4581 248.6733 13.11413981275621
ONEWEB-0102             
1 47258U 20100A   25327.67562613 -.00000394  00000+0 -11304-2 0  9992
2 47258  87.8954  31.5139 0001811  95.8397 264.2938 13.12442889237775
ONEWEB-0109             
1 47259U 20100B   25327.68373534 -.00000243  00000+0 -70997-3 0  9993
2 47259  87.8961  31.4796 0001859  98.8795 261.2544 13.12442928237605
ONEWEB-0110             
1 47260U 20100C   25327.70968941  .00000438  00000+0  11825-2 0  9998
2 47260  87.8960  31.4583 0002137 102.2633 257.8735 13.12442607237776
ONEWEB-0111             
1 47261U 20100D   25327.74050705 -.00000319  00000+0 -92245-3 0  9999
2 47261  87.8963  31.4702 0001850 100.5719 259.5617 13.12441172237617
ONEWEB-0114             
1 47262U 20100E   25327.69508748  .00000134  00000+0  33575-3 0  9993
2 47262  87.8963  31.4735 0001676  93.7837 266.3483 13.12443686237567
ONEWEB-0117             
1 47263U 20100F   25327.68698171 -.00000172  00000+0 -51299-3 0  9990
2 47263  87.8960  31.4727 0001864 101.4874 258.6463 13.12443975237577
ONEWEB-0118             
1 47264U 20100G   25327.71942689  .00000248  00000+0  65538-3 0  9994
2 47264  87.8963  31.4658 0001504 100.6680 259.4618 13.12441581237775
ONEWEB-0119             
1 47265U 20100H   25327.74699191 -.00000401  00000+0 -11497-2 0  9992
2 47265  87.8957  31.4962 0001887 101.5622 258.5718 13.12442557237750
ONEWEB-0120             
1 47266U 20100J   25327.69361006 -.00000879  00000+0 -24798-2 0  9995
2 47266  87.8953  31.5083 0001913 102.0197 258.1146 13.12445628237770
ONEWEB-0121             
1 47267U 20100K   25327.68211380 -.00000278  00000+0 -80826-3 0  9992
2 47267  87.8962  31.4778 0002031 103.6700 256.4655 13.12443182237689
ONEWEB-0122             
1 47268U 20100L   25327.67711044 -.00000416  00000+0 -11910-2 0  9995
2 47268  87.8961  31.4811 0001955  98.4098 261.7252 13.12442704237593
ONEWEB-0123             
1 47269U 20100M   25327.74861580 -.00000365  00000+0 -10490-2 0  9990
2 47269  87.8958  31.4946 0001709 103.4582 256.6737 13.12441916237743
ONEWEB-0124             
1 47270U 20100N   25327.73726199 -.00000199  00000+0 -58874-3 0  9991
2 47270  87.8959  31.5009 0001910 108.3936 251.7400 13.12441408237624
ONEWEB-0125             
1 47271U 20100P   25327.71455764  .00000391  00000+0  10526-2 0  9990
2 47271  87.8962  31.4674 0001681 108.9234 251.2077 13.12441880237683
ONEWEB-0126             
1 47272U 20100Q   25327.73578091 -.00000158  00000+0 -47319-3 0  9996
2 47272  87.8964  31.4863 0001805 101.9421 258.1910 13.12441101237751
ONEWEB-0127             
1 47273U 20100R   25327.70158427  .00000220  00000+0  57550-3 0  9997
2 47273  87.8958  31.5041 0001842  97.1470 262.9868 13.12442541237771
ONEWEB-0128             
1 47274U 20100S   25327.72429189  .00000187  00000+0  48388-3 0  9997
2 47274  87.8953  31.5178 0002072  99.2891 260.8472 13.12441556237799
ONEWEB-0129             
1 47275U 20100T   25328.08438579  .00000410  00000+0  11039-2 0  9992
2 47275  87.8963  31.3975 0001821  67.0882 293.0438 13.12443527237776
ONEWEB-0130             
1 47276U 20100U   25327.73077850 -.00000021  00000+0 -93282-4 0  9997
2 47276  87.8964  31.4636 0001934  99.7995 260.3352 13.12441045237691
ONEWEB-0131             
1 47277U 20100V   25327.72753678  .00000042  00000+0  80369-4 0  9999
2 47277  87.8963  31.4942 0001911 103.9657 256.1684 13.12441341237734
ONEWEB-0132             
1 47278U 20100W   25327.68049089 -.00000278  00000+0 -80811-3 0  9993
2 47278  87.8960  31.5052 0001878 101.4038 258.7301 13.12442806237622
ONEWEB-0133             
1 47279U 20100X   25328.07776455  .00000181  00000+0  46832-3 0  9998
2 47279  87.8956  31.3887 0002017 102.6886 257.4468 13.12444428237837
ONEWEB-0134             
1 47280U 20100Y   25327.74213104 -.00000263  00000+0 -76671-3 0  9997
2 47280  87.8964  31.4496 0002025  98.2661 261.8697 13.12442367237760
ONEWEB-0135             
1 47281U 20100Z   25327.71293888  .00000399  00000+0  10747-2 0  9991
2 47281  87.8960  31.4955 0002233  97.3458 262.7924 13.12442337237784
ONEWEB-0136             
1 47282U 20100AA  25327.73239988 -.00000125  00000+0 -38336-3 0  9999
2 47282  87.8964  31.4610 0002124  95.6134 264.5237 13.12440681237718
ONEWEB-0137             
1 47283U 20100AB  25327.69022250 -.00000055  00000+0 -18710-3 0  9993
2 47283  87.8964  31.4749 0001659 100.8436 259.2879 13.12443645237613
ONEWEB-0138             
1 47284U 20100AC  25327.59289904 -.00000439  00000+0 -12545-2 0  9999
2 47284  87.8960  31.5030 0001918  97.2938 262.8409 13.12441417237689
ONEWEB-0139             
1 47285U 20100AD  25327.70821535  .00000419  00000+0  11285-2 0  9991
2 47285  87.8961  31.4701 0001875 103.7974 256.3363 13.12443787237779
ONEWEB-0140             
1 47286U 20100AE  25327.73888527 -.00000235  00000+0 -68866-3 0  9995
2 47286  87.8963  31.4503 0001927  99.4268 260.7078 13.12441313237749
ONEWEB-0141             
1 47287U 20100AF  25327.70793833  .00000383  00000+0  10289-2 0  9995
2 47287  87.8956  31.4668 0001513 102.5213 257.6085 13.12443035237725
ONEWEB-0142             
1 47288U 20100AG  25327.69685581  .00000198  00000+0  51624-3 0  9997
2 47288  87.8960  31.4909 0001524  93.8028 266.3275 13.12443692237713
ONEWEB-0143             
1 47289U 20100AH  25327.70644315  .00000409  00000+0  11010-2 0  9999
2 47289  87.8960  31.4850 0001827 103.7838 256.3494 13.12444207237697
ONEWEB-0144             
1 47290U 20100AJ  25327.67887013 -.00000361  00000+0 -10398-2 0  9998
2 47290  87.8957  31.4602 0001883  90.2952 269.8392 13.12443138237619
ONEWEB-0145             
1 47291U 20100AK  25327.72591428  .00000124  00000+0  31067-3 0  9999
2 47291  87.8965  31.4881 0001850 102.3955 257.7380 13.12441323237819
ONEWEB-0146             
1 47292U 20100AL  25327.72267211  .00000192  00000+0  49709-3 0  9997
2 47292  87.8962  31.4755 0002022 110.4715 249.6630 13.12440940237725
ONEWEB-0147             
1 47293U 20100AM  25327.68860067 -.00000070  00000+0 -23030-3 0  9997
2 47293  87.8962  31.4602 0002064  94.2342 265.9022 13.12443605237613
ONEWEB-0115             
1 48042U 21025A   25328.02945860  .00000022  00000+0  26138-4 0  9999
2 48042  87.9002   0.9926 0001818  96.0784 264.0553 13.13469481226661
ONEWEB-0152             
1 48043U 21025B   25328.04299770  .00000445  00000+0  11850-2 0  9996
2 48043  87.8991   0.9992 0001919  93.4634 266.6715 13.13466011226628
ONEWEB-0153             
1 48044U 21025C   25328.02099713  .00000788  00000+0  21233-2 0  9996
2 48044  87.9002   1.0077 0001738  96.7035 263.4292 13.13465185226614
ONEWEB-0154             
1 48045U 21025D   25328.01761185  .00000307  00000+0  80662-3 0  9994
2 48045  87.8999   1.0044 0001904  94.4240 265.7107 13.13469578226576
ONEWEB-0116             
1 48046U 21025E   25328.05654056 -.00000159  00000+0 -46905-3 0  9996
2 48046  87.9004   0.9802 0001899  94.5253 265.6093 13.13470875226725
ONEWEB-0150             
1 48047U 21025F   25328.03283551 -.00000039  00000+0 -14271-3 0  9991
2 48047  87.9005   0.9808 0001622  97.2951 262.8362 13.13469420226612
ONEWEB-0107             
1 48048U 21025G   25328.03453576 -.00000100  00000+0 -30839-3 0  9995
2 48048  87.9002   0.9771 0001724  86.1084 274.0242 13.13469337226592
ONEWEB-0101             
1 48049U 21025H   25328.07347321  .00000182  00000+0  46285-3 0  9990
2 48049  87.8994   1.0041 0001905  92.8967 267.2380 13.13470711226572
ONEWEB-0113             
1 48050U 21025J   25328.02092907  .00000184  00000+0  46456-3 0  9996
2 48050  87.9000   0.9459 0001758 101.8238 258.3088 13.13983673226664
ONEWEB-0112             
1 48051U 21025K   25328.03961235 -.00000230  00000+0 -66516-3 0  9990
2 48051  87.9001   0.9735 0001741  94.8000 265.3328 13.13469528226666
